SWAS                    
1 25560U 98071A   26068.53487068  .00004636  00000+0  29986-3 0  9991
2 25560  69.8952 124.3662 0004099  14.3215 345.8065 15.08888192482231
STARLINK-4520           
1 53400U 22097N   26068.53573731  .00001052  00000+0  84161-4 0  9999
2 53400  53.2168 124.8157 0001365  63.0070 297.1062 15.08847822198491
